1 53921U 22119AM  22282.83334491  .00582434  16468-3  91841-3 0  9996
2 53921  53.2228 178.0953 0040891 102.3443  25.7138 16.01593398  2795